[{"OBJECT_NAME":"STARLINK-4618","OBJECT_ID":"2022-107AM","EPOCH":"2026-03-09T19:20:54.533472","MEAN_MOTION":15.08855213,"ECCENTRICITY":0.00010578,"INCLINATION":53.2167,"RA_OF_ASC_NODE":263.4124,"ARG_OF_PERICENTER":70.1068,"MEAN_ANOMALY":290.0038,"EPHEMERIS_TYPE":0,"CLASSIFICATION_TYPE":"U","NORAD_CAT_ID":53735,"ELEMENT_SET_NO":999,"REV_AT_EPOCH":19446,"BSTAR":-0.00022594121,"MEAN_MOTION_DOT":-3.883e-5,"MEAN_MOTION_DDOT":0},{"OBJECT_NAME":"CZ-6A DEB","OBJECT_ID":"2022-151BX","EPOCH":"2026-03-09T18:04:18.424992","MEAN_MOTION":15.16566225,"ECCENTRICITY":0.00404449,"INCLINATION":98.6231,"RA_OF_ASC_NODE":169.9483,"ARG_OF_PERICENTER":104.1368,"MEAN_ANOMALY":256.4361,"EPHEMERIS_TYPE":0,"CLASSIFICATION_TYPE":"U","NORAD_CAT_ID":54328,"ELEMENT_SET_NO":999,"REV_AT_EPOCH":10563,"BSTAR":0.0050960293,"MEAN_MOTION_DOT":0.00102794,"MEAN_MOTION_DDOT":0}]
